name,phone,email,address,postalZip,region,country
Katelyn Harmon,(503) 811-6824,mattis.velit.justo@yahoo.couk,"402-7783 Pellentesque, Rd.",65881,Maranhão,Canada
Palmer O'connor,(227) 441-1579,mauris.integer@hotmail.ca,119-7125 Orci St.,76215,Xīnán,United Kingdom
Jaden England,1-241-689-3327,aliquam.enim@google.org,589-1672 Imperdiet Rd.,700522,Nunavut,United Kingdom
Jaime Vaughn,1-328-165-3621,augue@icloud.com,Ap #521-6975 Laoreet St.,75678,Northern Mindanao,Russian Federation
Eleanor Chase,1-244-226-3515,lorem.luctus@outlook.edu,Ap #181-7764 Egestas Ave,22432,Davao Region,Belgium
Kelsey Carey,1-336-814-1642,facilisis.non@yahoo.org,Ap #718-5806 Donec Ave,772367,Mersin,United States
Lucius Kemp,1-198-737-7888,risus.morbi@yahoo.couk,882-5993 Aenean Av.,58167-961,Dadra and Nagar Haveli,France
Breanna Macias,1-535-666-4126,risus.donec@icloud.net,Ap #629-3605 Mollis. Rd.,56652,Sachsen-Anhalt,Germany
Anthony Perez,(249) 315-8334,neque@outlook.couk,"P.O. Box 779, 3170 Sit Ave",22116,Luik,Singapore
Griffith Curry,(557) 325-1647,orci.luctus@hotmail.org,Ap #245-3904 Nec St.,8112,Amazonas,Spain
Dale Lambert,1-454-412-8335,aliquam.nec@icloud.net,"P.O. Box 910, 631 Torquent Rd.",48127,Uttar Pradesh,Belgium
Ira Haney,1-981-486-7623,vitae.posuere.at@protonmail.couk,"P.O. Box 813, 1019 Enim Avenue",63285-041,Sumy oblast,Indonesia
Barclay Salazar,(301) 595-0171,eros.turpis.non@outlook.edu,515-9108 Ac St.,320820,Dalarnas län,Brazil
Denton Cohen,1-614-826-8558,quisque@outlook.org,854 Elit. Road,151799,Trentino-Alto Adige,Ukraine
Giacomo Ramirez,(810) 968-3993,aliquam.auctor@hotmail.edu,590-4720 Dapibus Ave,50108,Trøndelag,Nigeria
Christine Daniel,(152) 141-9661,eget.mollis@icloud.org,Ap #790-2734 Donec Ave,4977 XK,North Island,Singapore
Hadley Albert,1-568-742-7053,libero.morbi@yahoo.net,173-8285 Neque Ave,578188,North West,Austria
Duncan Crosby,1-265-996-9957,lorem@yahoo.edu,"P.O. Box 846, 7338 Penatibus Rd.",4388,Vienna,Ireland
Colette Collins,(665) 416-5101,duis.risus@outlook.org,7992 Auctor Rd.,664475,Puglia,Colombia
Yardley Ashley,1-870-676-8153,euismod.enim.etiam@outlook.net,189-9009 Ad Rd.,12817,Central Region,China
Tad Waller,(663) 247-6564,nec.cursus.a@aol.couk,Ap #452-9001 Lectus Road,27598,Sonora,France
Arden Fisher,(838) 299-6434,porta.elit.a@outlook.org,904-2275 Nullam St.,40316,Valle d'Aosta,India
Bert Rush,1-870-602-8187,eget.varius@outlook.edu,Ap #479-8518 Aliquam St.,456861,Jönköpings län,Germany
Candice Cantrell,1-884-184-7772,fringilla.purus@yahoo.org,6863 Sem Rd.,10661,Lanarkshire,Brazil
Venus Rivera,(281) 716-1952,sociis.natoque@yahoo.couk,Ap #445-6521 Elit Ave,543718,Junín,Philippines
Dale Arnold,(112) 152-9531,dolor@google.ca,Ap #712-8316 Consequat Rd.,8031,Yucatán,Norway
Tyrone Winters,1-589-342-5246,ornare.placerat.orci@icloud.edu,Ap #832-3204 Odio. Av.,350144,Henegouwen,Sweden
Emerald Camacho,(243) 667-8632,nulla.integer@protonmail.org,"P.O. Box 610, 6378 Etiam Rd.",217323,Khyber Pakhtoonkhwa,Nigeria
Candace Greer,(906) 777-8590,dolor.fusce.mi@google.net,4011 Et Rd.,5673,Ulster,Norway
Kelly Jimenez,1-136-834-0816,diam@protonmail.couk,2755 Mauris Ave,92686,Tamaulipas,Austria
Lester Armstrong,1-736-270-6221,suspendisse.sed@hotmail.edu,238-1646 Vivamus St.,5118,Puntarenas,Germany
Burke Roberts,(453) 707-1745,duis.ac@google.ca,189-6269 Nunc St.,46689,Ulster,Mexico
Logan Burt,(315) 219-7662,turpis.egestas@hotmail.couk,9651 Molestie Avenue,188845,Møre og Romsdal,United Kingdom
Xenos Pollard,(873) 110-8972,nisi.magna@outlook.org,"P.O. Box 355, 5478 Ante. Ave",41831,Jönköpings län,Ukraine
Dara Peck,(544) 409-8742,ornare.tortor@hotmail.couk,"P.O. Box 387, 5820 Nulla Rd.",22632-88013,Bangka Belitung Islands,Indonesia
Carson Buckner,1-775-597-7366,ultrices.mauris@icloud.net,"P.O. Box 505, 7238 Nam St.",9466 OR,Northern Mindanao,South Korea
Sara Woodard,(284) 628-5721,lobortis@outlook.edu,Ap #378-4600 Dis Av.,50791,Munster,Belgium
Garth Butler,1-885-280-8828,tellus.imperdiet@google.couk,Ap #936-7016 Aliquet. Road,839953,Wiltshire,New Zealand
Felix Richard,1-571-921-1978,auctor.velit@google.edu,166-8090 Tellus. Ave,8143,San José,Italy
Nichole Hubbard,1-746-453-4779,nisi@yahoo.com,Ap #781-1853 Magnis Rd.,18235,Zeeland,Austria
Yuli Roth,1-629-311-8064,libero.mauris.aliquam@hotmail.net,"P.O. Box 258, 2342 Scelerisque Rd.",68-62,Vestland,Vietnam
Whoopi Bowen,(673) 869-0173,nullam.nisl@hotmail.couk,Ap #237-6853 Sodales Ave,J3C 8C7,Overijssel,Indonesia
Blythe Terry,1-901-419-2704,vulputate.mauris@icloud.couk,140-5726 Eleifend St.,6704,Bali,Mexico
Keith Reed,1-168-926-7536,mi.enim@protonmail.couk,"P.O. Box 833, 2507 Massa Rd.",688812,Vestland,Poland
Omar Stokes,(302) 267-8127,massa.rutrum@protonmail.net,"Ap #351-7211 Et, Av.",7718,Cajamarca,India
Raven Weaver,1-438-458-9686,massa.non@hotmail.net,"9357 Et, Ave",233178,Pomorskie,Nigeria
Candace Gardner,(702) 481-1387,tortor.nibh@protonmail.ca,6346 Aliquet Av.,8589,Diyarbakır,Philippines
Honorato Briggs,1-813-679-4523,sagittis.duis@yahoo.edu,Ap #655-8281 Sed Avenue,H7T 9L4,Uttar Pradesh,Netherlands
Sydney Galloway,1-893-685-8706,gravida.non@yahoo.edu,526-8916 Dapibus Rd.,8284,Warmińsko-mazurskie,Belgium
Kyla Koch,1-578-315-6026,gravida.nunc.sed@yahoo.com,Ap #284-8143 Morbi Rd.,3688,North Island,Russian Federation
Declan Ray,(572) 295-4122,ullamcorper.eu.euismod@hotmail.edu,9392 Diam Avenue,9898,Rio de Janeiro,Colombia
Regina Schultz,(776) 829-1758,turpis.in@yahoo.edu,413-9657 Sociis Street,55381,Galicia,Austria
Benedict Everett,(998) 382-7166,non.cursus@google.org,272-4384 Malesuada St.,187927,Bangka Belitung Islands,Australia
Ethan Cotton,(604) 738-7948,purus@hotmail.edu,277-1676 Semper. Ave,2286,Lai Châu,Vietnam
Hayden Morgan,(442) 868-3558,lobortis.quis@icloud.edu,336-6115 Nunc. Av.,62185-423,Gävleborgs län,Colombia
Thomas Frank,1-512-621-6615,sed.nulla@aol.org,"P.O. Box 681, 5861 Quis, Avenue",8954,Flevoland,Netherlands
Dante Workman,(868) 462-4380,nibh.lacinia@google.org,1285 Justo Rd.,582237,North Maluku,Poland
Orlando Goodwin,(321) 885-8598,a.magna@aol.couk,7652 Sit Ave,107137,West Kalimantan,Italy
Lucian Cummings,(863) 681-4322,sodales.mauris@protonmail.ca,Ap #765-9560 Lobortis Ave,155253,West Region,Ukraine
Courtney Vaughn,(326) 305-2585,sollicitudin.orci@aol.edu,"P.O. Box 667, 3066 Vulputate Rd.",862284,East Region,Pakistan
Leo Compton,(447) 724-3456,suspendisse@icloud.net,949-926 Sed Rd.,791647,Munster,Italy
Melissa Browning,(341) 303-6786,ipsum.donec@protonmail.com,Ap #738-9665 Ac Street,19974,North Island,Austria
Wanda Moreno,(862) 752-9773,sagittis.lobortis@outlook.com,"P.O. Box 968, 6112 Aliquam Rd.",74420,Pembrokeshire,India
Shellie Blake,(785) 451-2147,dolor.tempus@outlook.couk,137-6114 Vestibulum Road,04381,Östergötlands län,Vietnam
Merritt Gibson,(662) 635-3193,nunc.pulvinar@icloud.com,878-6691 Sagittis Ave,8569,Punjab,Ukraine
Demetrius Case,(425) 557-0163,mauris@yahoo.edu,780-1360 Nec Street,45864,Rivers,Brazil
Belle Ratliff,1-555-767-7287,sociosqu.ad@google.com,"P.O. Box 455, 2302 Et, Rd.",2810-0753,Umbria,Pakistan
Kimberley Melton,(872) 344-4977,curabitur@yahoo.net,400-8166 Cum Ave,79175,Puebla,Norway
Alec Gardner,(109) 778-1218,placerat.orci.lacus@icloud.edu,825-514 Eu St.,26534-40433,Puebla,Singapore
Hayley Holmes,(878) 448-8297,eu.odio@outlook.edu,986 Lectus Av.,65612,Xīnán,South Korea
Jarrod Avery,1-840-316-8414,id.risus@yahoo.org,Ap #871-3389 Odio. Avenue,7823,Chandigarh,Indonesia
Rigel Hayden,1-245-502-4272,non.luctus.sit@protonmail.couk,610-8387 Ut Av.,14351,Kyiv oblast,Australia
Jordan Rasmussen,1-748-660-5677,odio.nam.interdum@icloud.org,"171-8282 Vitae, Avenue",26048,Gloucestershire,France
Myles Fischer,1-871-156-1340,lorem.eget.mollis@outlook.ca,622-4491 Ipsum. St.,74932,Aragón,India
Austin Navarro,(952) 283-5316,in.ornare@icloud.net,2411 Bibendum Street,0137 TT,Zeeland,Singapore
Sylvester Norman,(441) 294-7953,malesuada@google.org,Ap #548-3280 Est. St.,27648,Hidalgo,Russian Federation
Madeline Hinton,1-431-673-7249,auctor.velit@icloud.edu,Ap #745-8562 Magna Street,95680,Lubelskie,Netherlands
Christopher Wise,(273) 201-6952,semper@outlook.org,Ap #859-8832 Enim. St.,54216,Maule,Norway
Adele Richmond,1-137-992-7653,ac.fermentum@yahoo.couk,8313 Praesent Ave,844325,Junín,Russian Federation
Chandler Simon,(620) 184-9695,non.egestas@google.couk,567-5621 Aptent Road,7533,Lazio,Vietnam
Ivana Mcgowan,(343) 659-5842,arcu.sed.eu@aol.couk,"P.O. Box 785, 6860 Pellentesque Ave",422874,Zhōngnán,South Africa
McKenzie Stokes,1-351-354-5134,volutpat.nulla@aol.com,Ap #631-7008 Quisque St.,432793,Illinois,Belgium
Hayley Mcintosh,1-329-919-4267,eu.odio.phasellus@protonmail.net,Ap #843-5632 Risus. Avenue,1406,Quảng Ngãi,Pakistan
Uma Welch,(947) 305-8566,cubilia.curae.donec@aol.ca,"931-935 Laoreet, St.",412451,Iowa,Sweden
Abel Stevenson,(472) 722-4115,tellus.justo@aol.com,Ap #996-4438 Libero Road,1171,Kano,Italy
Jocelyn Dillard,1-789-229-4370,quisque.varius@hotmail.com,"115-3729 Sed, Avenue",21142,Northern Territory,Netherlands
Rhiannon Harding,(556) 534-3385,nunc.commodo@outlook.edu,Ap #259-4181 Ligula. Road,5126,Utrecht,Canada
Adria Webb,1-377-775-8082,odio.aliquam@protonmail.org,"P.O. Box 444, 5461 Tincidunt Avenue",3624,Alajuela,Nigeria
Quinlan Randall,1-537-381-4214,gravida.molestie@protonmail.net,808-400 Sed St.,18156,Xīběi,Vietnam
Nayda Cummings,1-557-985-8330,donec@google.couk,Ap #493-1512 Purus Av.,16771,Virginia,Colombia
Rhonda Warner,(334) 126-7187,nulla.donec@outlook.ca,555-4049 Duis Av.,36848,Saskatchewan,Ireland
Chadwick Campbell,1-457-375-3637,nec.ligula@outlook.net,"P.O. Box 592, 3259 Risus Rd.",V8 3IV,Auvergne,Mexico
Cassandra Collins,(734) 579-9648,mauris.aliquam.eu@protonmail.ca,"P.O. Box 800, 1988 Arcu. St.",33898,Quebec,Australia
Roth Hardy,1-610-683-3436,vestibulum.mauris.magna@outlook.com,180-9308 Augue St.,72836,Östergötlands län,Italy
Axel Dennis,(932) 364-1703,vel.venenatis@google.ca,720-3964 Phasellus St.,235307,Western Australia,France
Chancellor Morgan,(288) 141-5718,velit@hotmail.edu,"P.O. Box 779, 5748 Tincidunt Rd.",32638,South Island,Chile
Wyatt Lester,(381) 232-3125,lobortis.mauris@icloud.edu,"P.O. Box 353, 5620 Egestas Ave",27205,Lviv oblast,Brazil
Cynthia Wiggins,1-513-208-7260,donec.non@aol.org,245-607 Gravida Rd.,28765,Oost-Vlaanderen,Spain
Jessica Campos,(824) 459-4320,tincidunt.donec@yahoo.org,6015 Est Road,4733 DK,Alajuela,South Korea
Kalia Bonner,(115) 683-0516,nibh@google.edu,Ap #835-447 Neque Rd.,42762,North Kalimantan,Indonesia
Maite Eaton,1-613-297-0215,justo.praesent@outlook.com,555-8025 Orci Rd.,581443,Belgorod Oblast,Costa Rica
Ciara Bolton,1-383-285-6058,lorem.eget@google.edu,778-5315 Lobortis. St.,E8R 4HV,Trøndelag,China
Katelyn Keller,(657) 777-4241,ipsum.primis@hotmail.com,"P.O. Box 632, 6289 Nisi Ave",7512,Eastern Cape,Spain
Eagan Thompson,(126) 191-8854,ultricies@yahoo.couk,"P.O. Box 132, 7310 Curabitur Street",18178,Australian Capital Territory,South Korea
Magee Valenzuela,1-554-697-8718,egestas.a@protonmail.org,876-4917 Vestibulum St.,86120,Bangsamoro,Pakistan
Rafael Wong,(561) 641-3766,orci.lobortis@aol.edu,3061 Sit Avenue,249424,Veracruz,Spain
Brett Case,(664) 388-0365,ut.semper@protonmail.ca,"Ap #818-4198 Auctor, Rd.",364773,North Island,Austria
Yuli Tyler,(657) 241-7328,duis.a@outlook.com,150-6686 In St.,258598,Paraná,Austria
Elijah Lynn,1-780-232-6127,sodales@protonmail.org,Ap #111-4128 In Ave,Y6H 5T6,Yukon,South Korea
Valentine Franco,(643) 123-1564,elit.fermentum@protonmail.edu,Ap #573-5048 Molestie. Rd.,3821,Kurgan Oblast,Germany
Rama Hartman,1-402-746-6543,nonummy.fusce@aol.couk,497-8514 Penatibus Ave,16670,Emilia-Romagna,Indonesia
Alfreda Harris,1-346-852-5761,non.magna@yahoo.net,246-1096 Viverra. Avenue,55318,Southwestern Tagalog Region,Netherlands
Baker Simmons,(634) 246-7712,non.quam.pellentesque@aol.com,5570 Consectetuer Avenue,725851,Queensland,Austria
Coby Hobbs,(363) 859-6283,ad.litora.torquent@icloud.ca,3180 Commodo Street,50736,Warwickshire,Vietnam
Jarrod Gilliam,(742) 833-3655,dignissim.magna@icloud.org,"820-1617 Vitae, Ave",57078,Saskatchewan,South Africa
Gregory Barry,(847) 822-7752,ipsum@hotmail.edu,305-4591 In St.,0052-6431,Wielkopolskie,Costa Rica
Phelan Hawkins,1-926-316-2571,risus.quis@outlook.ca,"P.O. Box 354, 7768 A Street",11912,Cauca,India
Erasmus Valentine,1-547-679-8626,lectus.convallis@yahoo.ca,9046 Arcu Rd.,04070,Dalarnas län,New Zealand
Dexter Cantrell,(261) 326-8103,enim.gravida@google.couk,"P.O. Box 553, 2536 Integer Rd.",06661,Jönköpings län,Turkey
Hamilton Porter,1-233-384-2558,magnis.dis.parturient@outlook.org,363-2713 Massa. St.,359532,Kaluga Oblast,Vietnam
Colin Montoya,(421) 882-3444,a.feugiat@google.edu,855-3994 Lobortis Ave,82646,Valparaíso,Canada
Linda Chavez,(834) 188-1073,suspendisse.sed@icloud.org,341-1608 Fermentum Avenue,733270,Virginia,Netherlands
Bianca Blanchard,1-560-513-3947,ante@google.couk,"688-5802 Ac, Av.",77375,Mpumalanga,China
Xenos Brooks,1-824-418-4618,nunc@google.couk,969-7000 Eget St.,34457,North Chungcheong,Netherlands
Prescott Kent,(433) 817-7459,facilisis@yahoo.org,"P.O. Box 388, 7656 Erat St.",3768 RS,Schleswig-Holstein,Singapore
Simone Noel,(966) 589-7427,ipsum.primis.in@aol.ca,Ap #992-9388 A Rd.,68-142,National Capital Region,Australia
Ray Cook,(880) 657-3031,imperdiet.nec@yahoo.com,760-3570 Vitae Rd.,08626,North West,India
Cheryl Petersen,1-455-369-7000,cum.sociis@yahoo.edu,Ap #414-8936 Sapien. Street,J8 7FR,North West,Germany
Michael Vincent,1-207-637-1132,suspendisse.tristique@icloud.edu,Ap #554-4027 Fringilla Avenue,8512,Bremen,Nigeria
Jael Moore,1-243-841-4820,massa.mauris@hotmail.org,"9389 Purus, Avenue",44740,Mecklenburg-Vorpommern,China
Marny Brooks,(990) 542-5819,tortor.dictum.eu@aol.com,"Ap #829-8733 Est, St.",24186,South Jeolla,Ukraine
Erasmus Hurley,1-584-671-9042,nam.consequat.dolor@outlook.ca,675-955 Facilisis Road,458354,Ulyanovsk Oblast,Pakistan
Hamish Olson,(386) 762-8203,lacinia.sed@google.couk,162-915 Ultricies Ave,707728,Drenthe,Colombia
September Baldwin,(741) 928-9367,lectus@protonmail.com,Ap #115-3033 Lorem Rd.,04531,Provence-Alpes-Côte d'Azur,India
Pascale York,1-117-365-5431,magna.ut.tincidunt@hotmail.net,Ap #597-3561 Suspendisse Ave,21024,Oaxaca,Spain
Angela Howell,(762) 755-7145,mi@google.net,Ap #409-9387 Hendrerit Road,95477-22113,West Nusa Tenggara,Brazil
Plato Huber,1-467-716-7392,lobortis.nisi@icloud.com,278-7802 Amet Road,NE20 9UN,Heredia,Indonesia
Lesley Mcdaniel,1-836-327-7328,posuere.cubilia.curae@hotmail.edu,Ap #120-4298 Penatibus Ave,17-673,South Jeolla,Belgium
Jerome Palmer,1-663-824-4185,consectetuer@yahoo.org,352-8920 Tristique Street,57336,North Island,Costa Rica
Vivian Knox,1-216-345-9032,sed.dictum@yahoo.couk,427-9705 Volutpat Road,872071,Xīnán,Pakistan
Sebastian Elliott,1-737-603-3697,urna.nullam@outlook.couk,"P.O. Box 391, 1554 Mauris. Road",226254,Campania,South Korea
Theodore Ortega,1-335-644-8598,sem.magna@protonmail.edu,900-6158 Sed Av.,8866,Saskatchewan,France
Karly Page,1-200-864-5521,praesent@protonmail.couk,255-9371 Orci Street,5556,Schleswig-Holstein,United Kingdom
Joan Kramer,1-293-906-1993,euismod.urna.nullam@yahoo.net,183-769 Placerat Avenue,5635,Benue,Ireland
Graiden Paul,1-645-938-2227,nec@outlook.couk,822-9740 Velit. Ave,429857,Bremen,Indonesia
Jana Clark,(835) 277-6862,nunc.quis@icloud.com,Ap #439-2707 Malesuada Rd.,81184,Huáběi,Peru
Jacqueline Ortega,1-208-580-7284,eu@aol.com,878-2034 Vehicula St.,1405-6281,Newfoundland and Labrador,Russian Federation
Ivor Quinn,(754) 831-4660,sit.amet.faucibus@yahoo.couk,"758-6493 Nec, Av.",60550-628,Waals-Brabant,Norway
Dahlia Meyers,(725) 873-1627,donec.vitae@yahoo.edu,Ap #298-2627 Neque Ave,841449,Morelos,Indonesia
Athena Graves,1-421-367-9778,a.facilisis@hotmail.couk,Ap #708-4138 Sem Street,256264,Brussels Hoofdstedelijk Gewest,New Zealand
Gregory Yates,1-953-318-3320,egestas@icloud.net,"P.O. Box 471, 3209 Massa. St.",868344,Henegouwen,Netherlands
Hilel Robbins,1-407-486-0151,quisque.libero@google.ca,"1484 Non, St.",6188 PN,Dolnośląskie,France
Jacob Dunlap,(313) 433-5337,magna.et@google.ca,Ap #691-9292 Aliquam St.,4514,Mykolaiv oblast,Philippines
Brenda Brewer,(321) 742-1838,lorem.sit@google.org,Ap #614-3898 Ante. St.,37-231,Dalarnas län,Pakistan
Colin Suarez,1-452-565-1377,nulla.interdum.curabitur@icloud.org,Ap #182-6585 Aenean Road,532459,Queensland,United States
Desirae Sheppard,(722) 989-8730,erat.vivamus@hotmail.net,"Ap #256-3115 Elementum, St.",123160,Lambayeque,Vietnam
Aquila Joseph,(474) 375-1815,nec@protonmail.net,744-1427 Sit St.,20858,Australian Capital Territory,Canada
Emerson Bennett,(312) 389-3726,neque@aol.ca,Ap #231-2715 Ligula Road,456575,Upper Austria,Poland
Gail Fowler,1-224-697-5767,blandit.congue.in@google.edu,2725 Vitae Rd.,31-638,Xīnán,South Africa
Thor Fleming,(717) 765-3081,pede.suspendisse@icloud.org,"Ap #803-6855 At, Rd.",635279,Mpumalanga,Colombia
Brent Avila,1-944-971-5635,venenatis@aol.couk,Ap #314-9514 Risus. Ave,43303,Dalarnas län,Italy
Kathleen Baldwin,1-281-264-9559,amet.risus@hotmail.com,Ap #809-8863 Parturient Rd.,65112-336,Jigawa,United Kingdom
Erich Pugh,1-202-482-5197,dictum.phasellus@google.ca,9719 Interdum Avenue,21253,Jeju,India
Daria Dickson,(598) 246-2149,neque.vitae.semper@protonmail.org,"Ap #552-5675 Ornare, Avenue",68746,Sevastopol City,Colombia
Charles Newman,(314) 493-5485,justo.sit@google.com,"Ap #717-3853 Odio, Avenue",41713,South Island,France
Mikayla Spencer,1-726-514-6461,amet@protonmail.edu,226-4522 Sed Ave,33472,Antioquia,Austria
Keiko Abbott,1-352-475-0687,mi.lorem@protonmail.edu,365-3895 Vestibulum Avenue,298028,Nagaland,Ukraine
Abdul Torres,(318) 537-6394,eget.nisi@aol.ca,Ap #918-6876 Sodales Rd.,584116,Central Region,France
Octavius Acosta,1-556-479-2451,erat@hotmail.ca,296-321 Aliquam St.,74-85,Sikkim,Belgium
MacKenzie Roy,1-591-429-6328,ultricies.sem.magna@google.couk,Ap #900-2756 Enim St.,18129,Norfolk,Chile
Abra Beach,1-552-377-7837,quisque.nonummy.ipsum@google.com,"P.O. Box 647, 8799 Vulputate St.",2607,Veneto,Austria
Christen Garza,(718) 267-3062,adipiscing.lacus@google.com,"P.O. Box 729, 4829 Venenatis Rd.",37410,Ilocos Region,Brazil
Christine Berger,1-433-287-1105,cras.eget@protonmail.edu,743-4404 Eu Street,176578,Oklahoma,Colombia
Kamal Norton,1-601-270-3193,etiam.bibendum@hotmail.ca,5659 Erat Street,21202,Jigawa,Poland
Keegan Alston,(676) 888-3125,donec.dignissim.magna@icloud.edu,Ap #183-2938 Accumsan St.,51814,Oryol Oblast,Austria
Emmanuel Macias,1-411-461-3445,ante@icloud.couk,Ap #552-7081 Leo. Av.,21231-727,Vlaams-Brabant,Nigeria
Vincent Sullivan,1-563-443-4768,ut@icloud.com,657-8355 Adipiscing Rd.,6353,Sokoto,Poland
Prescott Tanner,(953) 150-0766,aliquet.sem.ut@hotmail.net,7189 Taciti St.,81936,South Chungcheong,Netherlands
Haviva Farmer,1-348-458-1872,nisl.sem@protonmail.com,"P.O. Box 717, 9360 Ipsum. Av.",34338,Jambi,Ukraine
Thomas Montoya,(471) 868-5849,euismod.et@hotmail.com,Ap #945-4676 Ullamcorper. Rd.,35837,Bryansk Oblast,Turkey
Kelly Santiago,1-354-597-3847,egestas.lacinia.sed@outlook.org,Ap #392-5058 Nec St.,414751,Huáběi,Austria
Jamalia Shaw,1-586-475-8969,est.arcu@protonmail.couk,7124 Molestie St.,268521,Norte de Santander,Peru
Xena Wilcox,1-439-772-7823,ridiculus.mus@hotmail.edu,7789 Molestie St.,47724,Sląskie,France
Nero Mathis,1-418-947-3134,primis.in@outlook.org,Ap #966-7685 Fermentum Avenue,7746,Huáběi,Germany
Quinn Levine,(323) 789-8422,ante.blandit@icloud.net,Ap #527-6492 Vivamus Ave,36-56,KwaZulu-Natal,Australia
Luke Garrison,(306) 558-3582,quisque.varius.nam@outlook.net,8069 Interdum Ave,309795,Northern Cape,Canada
Eric Hopper,(356) 787-2765,accumsan@google.ca,179-7825 Nulla. Rd.,365428,Paraíba,Netherlands
Rama Wallace,1-463-588-6227,tincidunt@icloud.net,7185 Et Av.,01331-13566,San José,Poland
Skyler Morgan,1-358-631-8128,non.ante@icloud.net,Ap #483-7905 Sed Avenue,22515,Huádōng,United Kingdom
Dexter Ford,(528) 216-7205,enim@google.com,"P.O. Box 519, 4092 At Road",16339-11733,Huáběi,Turkey
Isaac Franco,(867) 966-2550,auctor.vitae.aliquet@google.edu,485-8375 Phasellus Av.,746726,Antwerpen,India
Daniel Pena,(594) 268-4220,proin.dolor@hotmail.org,Ap #219-9946 Massa. St.,16815-438,British Columbia,Canada
Francesca Santiago,(357) 249-8611,id.erat.etiam@yahoo.edu,493-1112 Aliquam Av.,85768,Vaupés,Vietnam
Piper Blackwell,(675) 436-8441,elit.etiam@hotmail.ca,307-5256 Sem St.,PT8 5NA,Saskatchewan,Ukraine
Stone Zimmerman,(240) 367-5764,vitae.erat.vel@protonmail.ca,Ap #325-8181 Lobortis Street,205711,Illes Balears,Pakistan
Wyoming Bryan,1-695-345-1560,a.enim@yahoo.couk,761-9939 Eu Avenue,81835,Opolskie,Mexico
Abdul Whitfield,1-798-570-8035,neque.et@yahoo.com,"Ap #783-2282 Vitae, St.",58-488,Hamburg,France
Zeph Day,1-366-548-9553,lacus@yahoo.net,463-8204 Ante Road,U4 1UU,Huáběi,Ukraine
Keefe Sims,1-628-267-8428,ullamcorper.duis@icloud.com,2178 Adipiscing Road,45142,Sachsen,Spain
Kyra Love,(428) 263-4116,senectus.et@icloud.com,Ap #384-7860 Ornare St.,2520,Balochistan,Pakistan
Blythe Puckett,1-364-294-7264,nunc.laoreet.lectus@yahoo.edu,Ap #803-6759 Integer Avenue,0778,Henegouwen,Peru
Sydney Hawkins,(646) 884-6177,ac.mattis@yahoo.org,Ap #740-630 Turpis St.,11011,Heredia,Spain
Zane Hull,(410) 704-6147,sem.magna@yahoo.edu,577-1500 Ac Ave,13522-71672,Rheinland-Pfalz,Australia
Eaton Duffy,(550) 917-0435,congue.turpis.in@hotmail.couk,Ap #165-3940 Lorem Ave,8686,Huáběi,Mexico
Merrill Hamilton,(432) 771-6104,congue.a@google.ca,Ap #342-4708 Felis. Avenue,1711,Leinster,Australia
Kimberley Ballard,1-334-612-1602,quis.massa@yahoo.edu,8042 Velit. Road,82153,Punjab,Russian Federation
Jacqueline Forbes,1-938-137-8114,dui.quis@icloud.ca,Ap #207-6296 Aliquam Street,25-836,Mpumalanga,Austria
Otto Melendez,(122) 539-3824,risus@yahoo.couk,"P.O. Box 455, 2480 Quam Av.",686897,Ulster,Spain
Oliver Terrell,1-118-301-6416,nullam.suscipit@icloud.ca,Ap #125-5815 Massa Av.,42657-45448,Eastern Visayas,New Zealand
Charissa Hayden,(371) 425-2448,lacus.varius@icloud.ca,"P.O. Box 955, 2869 Morbi Road",282262,Huádōng,Austria
Orson Hatfield,1-466-602-9157,risus.morbi@google.couk,2258 Molestie Ave,844227,Agder,China
Talon Macdonald,(461) 457-6164,ut@icloud.net,9065 Mollis. Street,89-45,Melilla,India
Amelia Lott,1-619-463-3431,cras@outlook.com,5596 Non St.,S00 8BU,Vorarlberg,South Korea
Ivy Kidd,1-111-428-3755,cum.sociis@yahoo.org,Ap #824-6749 Duis St.,45372,Ryazan Oblast,Turkey
Mira Hendricks,(884) 874-6742,laoreet.ipsum@icloud.couk,124-6863 Nec St.,55167-160,Oklahoma,Chile
Aaron Camacho,1-552-888-7175,magna.a@aol.edu,Ap #556-5730 Orci. Av.,W43 0CI,Atacama,South Korea
Iola House,1-246-887-2785,risus@hotmail.couk,"6807 Pellentesque, Av.",20317,Cusco,China
Winter Barr,1-748-514-8665,id.erat@outlook.couk,331-9139 Molestie St.,98065,Vestland,United States
Brenda Ortega,(827) 847-1274,praesent.luctus@google.ca,345-7134 Nisi St.,82715,South Jeolla,Indonesia
Andrew Rivers,1-351-252-9373,purus.maecenas@google.couk,"Ap #544-8773 Vitae, Ave",54867,Östergötlands län,Nigeria
Justine England,1-274-847-9287,erat.neque@outlook.com,5216 Et Ave,140345,East Region,Netherlands
Finn Randall,(456) 422-1965,eu.tempor@outlook.org,Ap #583-9533 Vestibulum St.,3055,Lima,India
Lane Robertson,1-448-412-8070,arcu.vestibulum.ante@protonmail.org,Ap #208-7582 Ipsum. Road,304841,Delhi,Philippines
Lance Collins,1-987-214-1864,imperdiet.nec.leo@yahoo.edu,686-9676 Luctus St.,254127,Central Kalimantan,New Zealand
Thomas Mcbride,1-816-805-2061,risus.morbi@icloud.com,133-5585 Tempus Avenue,3881,Odisha,Spain
Amity Jones,1-513-455-7011,gravida.sit@protonmail.couk,Ap #415-8714 Justo Rd.,12702,North Chungcheong,United States
Cody Arnold,1-125-729-0882,condimentum.eget.volutpat@protonmail.couk,3011 Enim. Rd.,1672,Cartago,Netherlands
Marvin Moss,1-725-944-2823,sed@icloud.com,931-6679 Dolor Av.,62-52,Östergötlands län,Peru
Hedy Olson,(422) 303-5415,imperdiet@icloud.org,"576-9339 Non, St.",S2 6WP,Luik,Sweden
Rosalyn Foreman,(777) 711-1648,orci.sem@hotmail.org,Ap #937-9443 Faucibus. Rd.,2277,East Region,Peru
Jakeem Rodriquez,(961) 226-4224,tristique.senectus@protonmail.couk,7545 Aliquam Street,48364,Viken,Spain
Paula Montgomery,(647) 623-5108,metus.in.lorem@outlook.net,"828-4902 In, Ave",6793 CB,Agder,Colombia
Emmanuel Pugh,1-736-624-5656,eu.erat@google.net,Ap #962-3465 Non St.,859151,Hessen,Philippines
Barclay Daniel,1-212-785-6068,cursus.integer@protonmail.ca,9368 Hymenaeos. Street,94857,Troms og Finnmark,Nigeria
Amity Pennington,(742) 582-3586,risus.quis@outlook.ca,258-4714 Tempus Avenue,234983,Caquetá,Singapore
Dean Hooper,1-567-612-6148,dolor@aol.net,"Ap #885-959 Adipiscing, St.",685273,Kogi,Nigeria
Felicia Sandoval,1-944-997-4562,tortor@google.edu,"P.O. Box 614, 1495 Neque St.",2835-5487,North-East Region,Philippines
Clementine Holmes,(138) 332-8593,per.inceptos@google.net,1635 Nam St.,3407,Puglia,Colombia
Lila Riggs,1-358-267-2577,cubilia.curae@google.com,Ap #263-9881 Eleifend St.,7383 PP,West Papua,United States
Otto Maynard,(227) 321-2771,lobortis.class@hotmail.com,592-7884 Imperdiet Ave,46582,Aragón,Brazil
Logan Wise,1-691-249-4335,quisque.nonummy@protonmail.com,"944-1296 Quam, St.",37222452,Lubelskie,Austria
Keiko Robinson,(761) 887-0766,ac.ipsum@google.ca,Ap #737-2047 A Avenue,8361,Connacht,Pakistan
Bertha Wheeler,(937) 938-3920,eu.elit.nulla@hotmail.org,709-9764 Inceptos Ave,1797,Rogaland,United Kingdom
Jonas Rice,1-335-438-3769,consectetuer.cursus@protonmail.edu,609-7259 Scelerisque Avenue,5427,Meta,Canada
Laurel Booker,(898) 554-8343,pede.cum.sociis@aol.org,468 Dui. Street,453224,Queensland,Italy
Claire Hill,(173) 318-3468,tellus.eu@icloud.com,"Ap #760-1300 Nec, St.",212306,Pomorskie,South Africa
Magee Jenkins,(208) 783-4184,morbi@icloud.ca,"P.O. Box 355, 3164 Luctus Street",40841,Northwest Territories,Norway
Lucy Nolan,1-773-585-1953,eu.tellus.eu@aol.com,777-4445 Suspendisse Rd.,7068,Bahia,Pakistan
Price Newman,(541) 773-7430,aliquam@aol.com,Ap #316-5227 Donec Rd.,2371,North Island,Mexico
Sage Pruitt,1-512-951-1890,ultricies.ligula@protonmail.com,761-4667 Cras Street,26695,Arica y Parinacota,South Korea
Tashya Booth,1-970-663-2430,ipsum.donec@hotmail.couk,"P.O. Box 442, 8992 Purus Rd.",95643,Angus,Chile
Alden Jennings,1-357-722-6283,pede@google.net,Ap #651-9484 Mauris Av.,Q1 2WM,Liguria,Sweden
Olympia Carlson,(117) 237-8476,adipiscing.non@hotmail.couk,7742 Diam Rd.,8932,Oslo,Spain
Maggy Sherman,(715) 526-8813,turpis@outlook.net,Ap #654-5130 Lorem St.,7361,Valparaíso,Indonesia
Jamal Thomas,(164) 368-6407,fringilla.mi.lacinia@icloud.com,Ap #153-9316 Sit Av.,66-64,Western Australia,Philippines
Cody Flowers,(342) 468-5459,primis.in.faucibus@yahoo.net,Ap #481-330 At St.,11384,Khyber Pakhtoonkhwa,New Zealand
Urielle Tyson,1-123-279-5187,non@aol.couk,Ap #903-4399 Sed St.,21951-445,Aceh,Netherlands
Tyrone Patterson,1-221-925-3721,rutrum@hotmail.com,580-7243 Mattis. Avenue,321319,New South Wales,Belgium
Keiko Clemons,(877) 433-9822,nibh.dolor@icloud.couk,7458 Rutrum St.,8281,Maluku,Ukraine
Mikayla Wyatt,1-834-959-2599,elit.a@outlook.com,893-9022 Curabitur Rd.,48095,West Region,Turkey
Daphne Mcdonald,(317) 310-5652,turpis.vitae@google.net,320-484 Sed St.,3494,La Rioja,Turkey
Giacomo Sargent,(285) 577-8158,nam.ac.nulla@protonmail.edu,"141-3204 Id, Road",22350,Bà Rịa–Vũng Tàu,Vietnam
Jena Cotton,(460) 152-1812,morbi.non.sapien@hotmail.org,965-3054 Vitae Rd.,23315,Andaman and Nicobar Islands,India
Amos Cooper,(208) 285-3594,tempor.est.ac@aol.edu,8228 Dolor Street,2822,Jalisco,Mexico
Abdul Webb,1-189-741-6664,quam.quis@outlook.edu,Ap #128-3211 Convallis Rd.,177682,Nordrhein-Westphalen,Nigeria
Tamara Drake,(715) 171-7273,non.sapien@hotmail.org,"P.O. Box 161, 2075 Aliquet. Avenue",49373,São Paulo,Canada
Hanna Henson,1-803-529-7767,est@outlook.com,883-6705 Ligula. St.,05771-33885,Calabria,Sweden
Shana Moody,(782) 586-8558,velit.justo@icloud.edu,Ap #122-8307 Malesuada Street,533441,Thái Bình,France
Halla Booth,1-464-645-7234,integer@protonmail.net,Ap #199-3112 Orci. Avenue,322124,Gangwon,Brazil
MacKensie Mitchell,(615) 684-1110,a.ultricies@yahoo.org,Ap #588-6297 Curae Rd.,732834,Friuli-Venezia Giulia,Ukraine
Martin Byrd,1-386-712-3953,ante@outlook.edu,6840 Ipsum. Street,BJ6 6SE,Puntarenas,Norway
Brandon Dunlap,1-983-459-2475,eget@aol.org,Ap #536-1244 Convallis Road,27732,Davao Region,Colombia
Jana Leblanc,(327) 631-1230,neque.sed@hotmail.org,Ap #761-3663 Morbi Road,636925,KwaZulu-Natal,Colombia
Hyatt Richmond,1-879-637-8474,elit@outlook.org,Ap #418-9917 Sodales St.,2764,Valle d'Aosta,Norway
Indira Walker,1-737-544-2347,ut.odio@protonmail.edu,"P.O. Box 105, 2068 Sed Rd.",1062 PL,North-East Region,Germany
Adena Murphy,1-547-579-9879,enim.condimentum@aol.org,"340-9172 Amet, St.",607870,Azad Kashmir,Canada
Howard Perry,(287) 399-3684,lacus.quisque@protonmail.couk,Ap #497-6250 Nunc Rd.,21241-363,Oyo,United Kingdom
Reed Battle,(581) 193-7683,risus.varius.orci@google.org,666 Lacus. Av.,5114,Östergötlands län,Russian Federation
Calista Mcgowan,1-367-806-6433,semper.pretium@outlook.net,"P.O. Box 558, 2811 Integer Avenue",36657,Calabria,Belgium
Gary Chaney,1-313-406-1753,ante.dictum@icloud.net,Ap #780-9285 Metus St.,6514-0141,Special Capital Region of Jakarta,Ukraine
Wyatt Workman,(396) 807-4217,amet.metus@yahoo.com,385-1068 Purus. Rd.,717578,New Brunswick,Italy
Destiny Jefferson,1-178-452-5827,ornare@hotmail.com,448-5073 Integer Street,57859-71177,La Libertad,Ireland
Gloria Noble,1-444-829-3365,urna.justo@icloud.com,Ap #523-8214 Etiam St.,8632,łódzkie,Turkey
Gage Salinas,(981) 798-8043,magna.phasellus@protonmail.org,155-3598 In Av.,281764,Vichada,France
Preston Craig,1-658-424-8049,facilisis.lorem@hotmail.edu,Ap #979-770 Hendrerit Street,60384-24419,Loreto,Norway
Teegan Shaffer,(532) 783-4552,sed.pharetra.felis@yahoo.ca,677-8888 Fusce Av.,703984,Overijssel,Ireland
Bradley Weber,1-683-446-5188,suspendisse.commodo@protonmail.org,Ap #302-3829 Lacinia. Av.,569187,Tennessee,Netherlands
April Bolton,(107) 671-6244,lectus.a@google.ca,3284 Parturient Av.,85957,Mexico City,Belgium
Rafael Soto,(263) 321-4250,nulla@icloud.edu,723-1128 Nisi. Rd.,763182,Innlandet,Norway
Raja Chambers,(872) 374-6312,magna@aol.ca,"475-3486 Eu, Av.",65524-138,Vlaams-Brabant,France
Madonna Austin,(832) 535-8155,orci.sem.eget@outlook.net,681 Luctus Av.,43-18,Kirkcudbrightshire,Turkey
Kathleen Cummings,1-535-458-5840,ornare.egestas.ligula@aol.edu,Ap #968-6023 Rhoncus. Ave,33583,Friesland,United States
Vance Greene,(714) 817-4155,tempus.lorem@yahoo.couk,110-4512 A Rd.,22157,Michoacán,United Kingdom
Audra Reese,(110) 656-1332,fringilla.mi.lacinia@hotmail.net,"Ap #438-9374 Purus, Street",5796,Vinnytsia oblast,Australia
Keane Hammond,1-483-843-3443,pede.cras@hotmail.ca,568-9992 Tellus Road,122876,South Island,Colombia
Colin Fernandez,(439) 374-3186,tincidunt.nunc@yahoo.edu,197-8306 Tempor Ave,8609-2585,Overijssel,New Zealand
Davis Weaver,(693) 766-4585,nec.tempus.scelerisque@yahoo.couk,8431 Arcu. St.,454134,California,South Korea
Benjamin Valencia,1-426-351-4130,magna.ut.tincidunt@google.net,1708 Dignissim Rd.,16040,Bạc Liêu,Nigeria
Guy Wallace,1-581-679-5087,erat.vivamus@icloud.ca,"P.O. Box 273, 6671 Adipiscing Rd.",735779,Västra Götalands län,Singapore
Murphy Hopper,(443) 895-1680,consequat.auctor@aol.edu,Ap #229-6712 Mollis. Road,36462,Carinthia,Nigeria
September Battle,1-296-653-5353,eros@hotmail.com,793-3722 Eu Ave,14267,British Columbia,Nigeria
Shafira Duke,(321) 684-1756,hendrerit.consectetuer.cursus@outlook.com,Ap #599-8143 Nunc Rd.,3286,North West,Colombia
Alexis Oneal,(602) 856-5920,sed.sapien@protonmail.ca,7767 Maecenas Street,5268-5851,Yucatán,Costa Rica
Zachary Hall,(248) 125-4574,hendrerit.donec@protonmail.couk,3471 Dui. Av.,63623,North Island,Germany
Heidi Mcclure,1-364-216-5484,dis@outlook.org,"Ap #999-2463 Laoreet, Ave",249728,Munster,Philippines
Xandra Atkinson,(609) 537-0005,sit.amet.ante@outlook.ca,Ap #250-5035 Dui. Street,455776,South Island,Norway
Cairo Perez,(671) 113-1772,nunc.risus@aol.ca,"Ap #312-2643 Sapien, St.",337254,Tuyên Quang,Australia
Kato Mckee,(876) 865-3737,ridiculus.mus.proin@icloud.com,Ap #988-291 Vestibulum Av.,2375-7311,Khyber Pakhtoonkhwa,Austria
Lee Cain,1-915-584-7239,nec@google.couk,584 Molestie Ave,806664,łódzkie,Poland
Jin Frazier,(618) 467-2087,arcu.morbi@protonmail.edu,413-5514 Tortor Road,02575-35751,Northwest Territories,Poland
Hamilton Perry,(889) 503-2333,arcu.sed@yahoo.com,Ap #285-1997 Tincidunt St.,73-71,Benue,Pakistan
Quinlan Sanchez,(321) 225-1675,rutrum.lorem@icloud.com,738-9734 Vitae Street,16-038,KwaZulu-Natal,Belgium
Lawrence Miranda,(516) 932-3048,interdum.libero.dui@outlook.couk,Ap #698-5543 Donec St.,81276,Valle d'Aosta,Poland
Cora Vargas,1-246-616-5247,purus.in.molestie@yahoo.com,3919 Metus Av.,4377,Mykolaiv oblast,Sweden
Wesley Randall,(874) 947-4115,scelerisque.dui.suspendisse@yahoo.org,Ap #621-2542 Quisque Rd.,5930,North-East Region,Australia
Alice Jensen,(707) 535-9140,non@aol.edu,"Ap #680-4242 Aliquam, Ave",10476,Leningrad Oblast,China
Amela Frost,(275) 790-7377,et.malesuada@hotmail.edu,5427 Diam. Av.,4594,South Australia,China
Jana Willis,1-812-703-8648,sed.orci.lobortis@outlook.couk,532-3442 Lorem Road,11220,Biobío,Spain
Hamilton Hooper,1-926-652-0968,maecenas.mi@outlook.ca,636-6429 Morbi Rd.,37916-66620,Nordrhein-Westphalen,South Africa
Callum Raymond,1-631-354-4169,elit.aliquam.auctor@outlook.org,Ap #493-9316 Aliquet Avenue,451382,Cherkasy oblast,Netherlands
Harper Francis,(386) 862-9432,auctor.ullamcorper@icloud.org,Ap #532-1807 Quisque Ave,9351,Chihuahua,Australia
Dora Carey,1-998-854-8555,cursus.luctus@aol.com,Ap #464-3893 Vestibulum St.,324665,Namen,Brazil
Jerry Lopez,(614) 376-7159,ultrices@hotmail.ca,Ap #735-8639 Mollis Rd.,8556,Pomorskie,Pakistan
Fletcher Hancock,1-409-436-8053,molestie.sed@google.net,"P.O. Box 820, 1166 In, St.",7720,Salzburg,United States
Evelyn Bryan,(417) 582-4383,et.netus.et@yahoo.couk,"P.O. Box 986, 5657 Non Rd.",G49 3CV,Baja California,Netherlands
Price Pate,(637) 333-8715,et.ultrices@hotmail.ca,609-2496 Sapien. Ave,6726-4716,Tasmania,Costa Rica
Caldwell Mills,1-707-702-5885,vulputate.eu@protonmail.net,Ap #432-7145 Tristique Rd.,865982,Molise,Peru
Salvador Valentine,(377) 349-1124,lacus.quisque@yahoo.net,"Ap #313-3417 Leo, Road",35630,Cundinamarca,Mexico
Regina Barnett,(522) 334-8887,duis.cursus@icloud.couk,Ap #632-1606 Dolor. Street,67747-30109,Picardie,South Africa
Xander Patterson,1-623-256-7762,eget.ipsum.donec@yahoo.net,385-4557 Ligula Rd.,825172,Vlaams-Brabant,Colombia
Farrah Hurst,(356) 784-8112,non@outlook.edu,Ap #701-374 Et St.,78146,South Gyeongsang,United Kingdom
Seth Ramos,(755) 585-7647,ligula.nullam@outlook.edu,216-689 Malesuada St.,4515,Santa Catarina,Italy
Aphrodite Davidson,1-369-736-9520,integer@outlook.org,Ap #440-6676 Consequat St.,254685,Western Visayas,Indonesia
Erasmus Whitney,1-475-333-2114,massa.mauris.vestibulum@hotmail.org,"P.O. Box 898, 1217 Vivamus Rd.",776335,Catalunya,Ukraine
Kyla Brooks,1-989-275-3034,donec@outlook.ca,"932-1783 Ante, Ave",3530,KwaZulu-Natal,Mexico
Reagan James,1-844-430-7436,lacus.varius@yahoo.com,Ap #881-2339 Sociosqu Rd.,8252-5715,Huáběi,United Kingdom
Beverly Daniel,1-658-351-5463,ipsum@icloud.edu,291-9869 Cursus Ave,24427,Lanarkshire,Costa Rica
Hedley Lucas,1-735-237-3828,lectus.cum.sociis@hotmail.com,"P.O. Box 788, 8673 Est. Rd.",29493,East Region,Indonesia
Norman Pate,1-637-749-4664,dictum.sapien.aenean@protonmail.ca,Ap #562-9513 Libero Road,8155,South Island,Netherlands
Ainsley Sanders,(871) 451-5637,sed.est.nunc@protonmail.ca,6960 Donec Road,230241,Västra Götalands län,New Zealand
September Joyner,1-410-342-6182,primis@google.com,"P.O. Box 856, 5028 Sem, Rd.",3873,Worcestershire,Indonesia
Orson Campos,(794) 361-1795,nulla.ante@outlook.edu,"595-6914 Non, Street",377332,Mazowieckie,Nigeria
Shea Frost,(154) 838-2121,non@protonmail.ca,Ap #436-4767 Vel St.,266731,Leinster,Indonesia
Rowan Kirk,1-985-643-8767,diam.luctus@outlook.com,8254 Tellus Rd.,7138 XP,Quảng Bình,Colombia
Edan Morris,(307) 865-5841,eros.proin@protonmail.couk,362-6334 Dictum St.,2367,Midi-Pyrénées,Vietnam
Uma Mcguire,1-281-285-6013,lectus.cum@outlook.org,"P.O. Box 515, 4200 Cursus. Rd.",478586,Nottinghamshire,South Africa
Lars Gibbs,1-817-870-5776,proin.velit@google.net,Ap #294-5289 Hendrerit Av.,255234,Kocaeli,India
Quin Ortega,(363) 841-1161,tellus.faucibus@aol.com,359-1188 Praesent Ave,26296,Upper Austria,Chile
Xandra Orr,(725) 748-1273,erat.volutpat@icloud.couk,"451-2543 Laoreet, Street",75793,Aceh,Canada
Uta Solomon,(325) 457-7735,nonummy.fusce@outlook.com,"P.O. Box 672, 5938 Etiam Street",883643,Chhattisgarh,Ireland
Calvin Flores,(269) 592-8329,dapibus.rutrum.justo@yahoo.com,"P.O. Box 913, 5956 Hendrerit. Ave",11174,Zeeland,Pakistan
Flynn Wright,(294) 815-8716,porta.elit@yahoo.net,"784-8514 Nostra, St.",06108,Catalunya,China
Jerry Beach,(722) 586-5687,quisque.ornare@google.net,"P.O. Box 326, 1456 Vestibulum Road",41614,FATA,Poland
Amery Raymond,1-291-480-4863,proin.dolor@yahoo.edu,"P.O. Box 680, 330 Morbi Ave",7876,FATA,Turkey
Rhoda Lara,1-991-235-7263,amet@yahoo.net,"P.O. Box 606, 6424 Scelerisque St.",81225,Guanacaste,Singapore
Donovan Watson,1-739-863-3532,orci.ut@aol.com,Ap #401-8887 Bibendum Rd.,38482,Calabria,Norway
Autumn Green,1-536-643-7395,ut.nulla@yahoo.net,986-3074 Eu St.,75344,Berwickshire,United Kingdom
Steven Duran,1-757-777-2562,nec.malesuada.ut@outlook.ca,"P.O. Box 955, 7686 Egestas Rd.",5415,North Island,Poland
Megan Lyons,(434) 504-5350,velit.dui@hotmail.couk,Ap #558-5995 Magnis Av.,486793,Limpopo,Italy
Callie Potter,1-275-527-6501,nec.ligula@protonmail.com,188-9813 Arcu Road,686613,Meghalaya,Sweden
Reed Walter,1-356-311-6782,nullam.nisl@aol.com,"P.O. Box 230, 8105 Mi Avenue",81861,Vermont,South Korea
Raja Sawyer,1-441-506-8072,sed.dictum@hotmail.couk,Ap #795-316 Gravida Av.,5087,Adana,Netherlands
Ella Park,1-202-661-6667,diam@google.com,Ap #624-5594 Vitae Ave,5023,Santander,Germany
Fay Mckenzie,(657) 235-4483,quis@outlook.ca,5737 Augue St.,653587,Oregon,China
Damon Foster,(308) 314-4087,sed.facilisis.vitae@outlook.couk,"P.O. Box 377, 5788 Nisl. Road",26840,Uttar Pradesh,United States
Fritz O'connor,(367) 372-9246,mauris.suspendisse.aliquet@hotmail.net,"P.O. Box 971, 945 Praesent Av.",42611,West Region,Singapore
Camilla Kemp,(221) 440-8617,cursus.diam.at@protonmail.ca,"P.O. Box 659, 1644 Turpis. Av.",T1C 5L6,South Island,Netherlands
Autumn Willis,(401) 450-6683,lacinia.vitae@google.ca,"Ap #358-4531 Nec, Rd.",06-344,Los Lagos,Brazil
Hyatt Jimenez,(276) 493-9610,nulla.semper@hotmail.couk,"1630 In, St.",T7 2GR,Akwa Ibom,Indonesia
Ryder Bridges,1-749-426-3642,duis.gravida@protonmail.ca,"P.O. Box 410, 9270 Consectetuer Av.",5454,Comunitat Valenciana,Ireland
Nyssa Melendez,1-660-854-5556,non.lorem@yahoo.couk,"792-5316 Urna, Avenue",7608,Ceará,South Africa
Cole Weaver,1-836-207-5971,elementum.sem@aol.com,666-9455 Ligula. St.,68-53,Penza Oblast,Nigeria
Barrett Dillon,1-395-835-6132,in.tempus@hotmail.ca,404-7640 Id Av.,72841,Washington,Ireland
Dominic Morton,(200) 141-8540,rutrum.eu@icloud.org,"Ap #758-4440 Montes, Rd.",51-51,North Jeolla,Spain
Clio Robles,(418) 223-5638,ridiculus.mus@aol.org,Ap #714-5829 Fermentum Rd.,132153,North Island,Germany
Gil Bradford,(249) 781-2421,a.malesuada@google.net,697-9698 Donec St.,334774,Kano,Netherlands
Raven Hill,1-758-935-2128,eros@yahoo.edu,"983-4408 Montes, Av.",17887,Lubelskie,Germany
Colin Quinn,1-566-464-4872,diam.pellentesque@google.com,"P.O. Box 911, 7302 Velit. St.",0784 NB,Friesland,Spain
Oscar Franco,1-971-663-7326,sem.mollis@hotmail.com,"Ap #982-7128 Enim, Av.",2255,Sindh,Peru
Gage Wright,1-762-246-7703,eu@protonmail.net,Ap #935-4234 Proin Av.,29557,łódzkie,Costa Rica
Lesley Warren,1-642-631-9477,montes.nascetur.ridiculus@aol.com,286-6454 Egestas Road,0434,Bình Thuận,Philippines
Zephania Petty,(127) 516-2194,tristique.ac.eleifend@aol.edu,"Ap #301-2610 Mauris, Av.",8130 IU,Paraíba,Sweden
Hanae Giles,1-539-543-7141,nec@protonmail.org,"Ap #561-9499 Montes, Rd.",36383,Campania,Germany
Vielka Little,(157) 628-4844,ipsum.suspendisse@google.ca,"Ap #121-9982 A, Ave",6815,Ryazan Oblast,Spain
Maggie Moreno,1-923-649-0261,morbi.tristique@outlook.org,"Ap #389-533 Et, St.",29495-22470,La Libertad,South Korea
Jamalia Salas,1-267-258-4283,eleifend.non@icloud.ca,9114 Egestas Ave,42768,Şanlıurfa,Turkey
Cole Benjamin,1-275-181-9852,nunc.mauris@google.couk,"Ap #993-7017 Amet, Ave",18434-35732,Antwerpen,Nigeria
Chaim Jacobs,(547) 470-7727,varius.orci@hotmail.edu,"993-9393 Vel, St.",64317,South Australia,France
Maxine Sloan,(729) 388-1054,ipsum.dolor.sit@outlook.org,Ap #865-5422 Dui Rd.,51406,Cần Thơ,Russian Federation
Amir Lindsey,1-336-752-1014,dictum@icloud.net,6399 Lacinia Road,35376,Upper Austria,Singapore
Hop Goodman,1-873-773-9429,ullamcorper@google.couk,689-160 Cursus. Avenue,8857,Namen,Russian Federation
Madaline Stark,(874) 447-1136,turpis@icloud.com,364-2617 Magna. Ave,6461,Ankara,Spain
Orli Dodson,1-659-842-0506,massa.mauris@protonmail.net,Ap #110-8496 Pharetra. Rd.,68148,Munster,Spain
Nero Pugh,1-729-593-8724,hendrerit.neque.in@aol.net,9114 Nam Rd.,974479,Valle d'Aosta,New Zealand
Irma Bush,1-772-772-1303,sem@outlook.edu,Ap #689-2406 Mi. Av.,86854,Northern Cape,Austria
Amery Cunningham,(391) 523-1513,porta.elit@protonmail.ca,"8672 Elit, St.",M2L 2W7,Connacht,United Kingdom
Dylan Vargas,1-229-842-8313,urna@icloud.org,"P.O. Box 823, 6649 Ultrices, Av.",3384,Magdalena,Austria
Colton Schmidt,1-363-852-0458,suspendisse.eleifend.cras@yahoo.net,"Ap #859-7595 Fringilla, St.",43-123,Zakarpattia oblast,Russian Federation
Adena Jarvis,1-598-378-2124,integer.urna@protonmail.com,6447 Id Street,02417,Midi-Pyrénées,Norway
Curran Calderon,(282) 720-5325,nullam.vitae@aol.org,496-6489 Curae Road,372844,West Nusa Tenggara,Germany
Tatiana Buckley,1-355-128-4588,consectetuer.adipiscing@hotmail.couk,1658 Est. Street,3526,Norfolk,France
Natalie Hewitt,(683) 785-8272,primis.in@hotmail.edu,886-7854 Phasellus Av.,353354,East Region,Peru
Griffin Blake,(215) 700-7236,fermentum.metus@google.net,Ap #230-6924 Libero Ave,84877,North-East Region,Russian Federation
Jordan Levine,(353) 356-1436,aliquet.sem.ut@icloud.couk,253-3721 Molestie Road,335659,Delta,Russian Federation
Jesse Duncan,1-618-917-6219,libero.morbi.accumsan@protonmail.net,Ap #681-4918 Ac Avenue,84-67,South Jeolla,Vietnam
Dorian Boyer,(436) 754-3844,neque.sed@protonmail.org,"P.O. Box 681, 1903 Nulla. St.",31203021,Oost-Vlaanderen,Russian Federation
Alvin Neal,1-567-555-7389,eu.dolor@outlook.net,"743-9456 A, Av.",7336,Alberta,Belgium
Ferdinand Morin,(234) 533-6191,lobortis.class@protonmail.edu,329-1275 Diam Av.,30214,Banten,Chile
Brock Hawkins,(408) 378-8540,quam.quis.diam@outlook.com,Ap #521-4137 Congue Road,6146,Kansas,India
Jaquelyn Vargas,(281) 774-3634,elit.a@hotmail.com,1360 Velit. Rd.,5649,Aisén,Sweden
Maryam Huber,(213) 291-0423,leo.vivamus@aol.edu,306-6409 Vivamus Rd.,0860,Puglia,Costa Rica
Keegan Watkins,(438) 189-4058,commodo.ipsum.suspendisse@aol.edu,"P.O. Box 785, 8300 Velit Road",5434,South Australia,Poland
Calvin Blair,(231) 747-2575,ultricies.adipiscing@outlook.edu,"345-3347 Vitae, Ave",729461,Leningrad Oblast,Australia
Bruce Vazquez,(507) 661-3377,justo.faucibus@outlook.org,Ap #611-7858 Facilisi. Avenue,876558,Ninh Bình,Vietnam
Owen Caldwell,1-577-414-7626,molestie.tortor.nibh@google.edu,911-709 Vel Rd.,296885,łódzkie,Nigeria
Odette Rasmussen,1-982-672-3412,consequat.enim@outlook.org,Ap #757-5933 Dictum Street,67173,South Australia,Costa Rica
Stephen Green,(166) 785-8265,morbi.non@icloud.couk,2237 Rutrum Av.,724655,Zhōngnán,New Zealand
Derek Erickson,(556) 856-1320,pharetra.nibh.aliquam@protonmail.edu,Ap #637-8755 Porttitor Avenue,W2E 8B2,Querétaro,Indonesia
Meghan Cortez,1-688-525-5427,tempor@outlook.couk,Ap #521-7199 Cras Ave,01378,Guanacaste,France
Lyle Cardenas,(396) 766-3699,condimentum.eget@outlook.ca,360-3573 Quisque Rd.,75938-81362,Los Ríos,Chile
Jael Landry,1-545-483-1618,mollis.vitae@outlook.edu,"P.O. Box 240, 1781 Odio. Av.",198468,Jigawa,France
Price Dillard,1-260-828-1761,faucibus.ut@google.com,419-2770 Erat Street,65641-117,Cajamarca,Ukraine
Gage Velazquez,1-874-902-7583,vestibulum.ante@aol.couk,"P.O. Box 144, 1580 A, Ave",523784,Western Cape,Chile
Patience O'Neill,1-462-660-9499,ullamcorper.velit@yahoo.ca,2090 Mauris St.,29451,Puno,Chile
Simon Warner,1-436-411-1890,congue.a@hotmail.edu,Ap #497-6479 Aenean Av.,434889,Małopolskie,Austria
Aphrodite Barron,1-634-169-5437,at@aol.edu,785-5212 Ac Street,A2W 2E7,South Jeolla,Spain
Kennedy Kirby,1-482-623-8855,porttitor.interdum@outlook.couk,Ap #491-3837 Iaculis St.,54215,Kaliningrad Oblast,Ireland
Wayne Valencia,(527) 138-9220,dui.nec@protonmail.edu,"P.O. Box 430, 5210 Duis Ave",88444,Michoacán,Italy
Addison Coffey,1-617-862-5059,lectus.quis@google.net,Ap #901-8037 Ut Rd.,54-761,West-Vlaanderen,France
Remedios Stout,1-884-421-5686,fermentum.fermentum@outlook.org,Ap #459-3818 Suspendisse Ave,19229,South Australia,Austria
Hamilton Ashley,(252) 739-3331,in@aol.ca,"612-7145 Lorem, Street",2512,Cartago,China
August Kirby,1-103-374-3735,varius.et@yahoo.net,331-3520 Lacinia St.,38159,New South Wales,South Africa
Richard Bridges,1-652-446-4171,neque.nullam@outlook.couk,8385 At Road,51045-210,Ontario,Ireland
Allegra Perkins,(664) 527-5731,ipsum.primis@icloud.com,452-6478 Rhoncus Av.,63376,Calabarzon,Indonesia
Wade Whitfield,(676) 975-9073,neque.nullam.nisl@protonmail.com,792-8060 Rutrum Ave,8412,Paraíba,Italy
Dawn Everett,(370) 534-2849,elit.aliquam@aol.edu,659-2461 Mus. Street,373713,Kharkiv oblast,Canada
Geoffrey Baxter,1-759-487-9363,pede.malesuada@icloud.couk,Ap #640-1404 Phasellus Ave,32079,Valparaíso,Netherlands
Leah Talley,(739) 692-4398,cursus.luctus.ipsum@google.net,741-4328 Nibh Av.,68989-66485,Rogaland,Colombia
Barbara Todd,(425) 577-7423,congue.elit@yahoo.net,5647 Ac St.,9563,Balochistan,Spain
Micah Blanchard,(404) 500-4399,morbi.sit@icloud.net,Ap #675-2656 In St.,746465,Kerala,Singapore
Leo Baldwin,(548) 934-6131,orci@hotmail.net,695-6810 Suspendisse Avenue,43885,Berlin,Philippines
Lucas Fischer,(515) 816-4535,vulputate.velit@yahoo.couk,879-7846 Sociis Ave,42426,Cherkasy oblast,Italy
Jelani Benjamin,(551) 359-7766,curabitur.consequat@yahoo.com,Ap #191-6275 Interdum Rd.,5753,Vinnytsia oblast,United Kingdom
Nayda Mcfarland,(338) 455-3647,orci.consectetuer@icloud.net,160-6415 Mauris. Rd.,88226-904,Balıkesir,France
Emma Terrell,(329) 386-4761,risus.odio@aol.ca,"3522 Urna, St.",9490,Île-de-France,Brazil
Shea Kaufman,(883) 238-0860,laoreet.posuere.enim@outlook.couk,Ap #688-9336 Fusce Road,770638,Special Capital Region of Jakarta,Brazil
Shelley Warner,(361) 770-2844,sociis.natoque.penatibus@hotmail.edu,558-1504 Non St.,842838,Dalarnas län,Vietnam
Galena Maldonado,1-415-374-8219,in.felis@hotmail.org,Ap #255-893 Rhoncus. Road,TM8D 2IT,Zachodniopomorskie,India
Risa Garcia,1-827-696-2156,egestas.aliquam.nec@yahoo.com,Ap #557-9517 Donec Ave,2304,Tamaulipas,Norway
Eaton Santos,(362) 179-3125,volutpat.nulla@aol.net,Ap #808-1047 Sodales Av.,7430,Leinster,Germany
Seth Luna,(677) 240-6883,in.faucibus@hotmail.ca,9391 Proin Rd.,6727,Somerset,Norway
Jason Sloan,1-359-647-5809,eu.metus@icloud.com,Ap #585-604 Donec Rd.,01990,Sonora,Peru
Isaac Cox,1-397-126-2529,tortor.nibh@protonmail.org,Ap #822-2703 Turpis Avenue,886779,Kaduna,Ukraine
Adele Reynolds,(221) 665-1665,erat.vel.pede@icloud.net,Ap #664-5374 Feugiat. Street,4857,North West,Australia
Mariam Ewing,1-995-947-4431,a.auctor.non@icloud.net,"P.O. Box 633, 4149 In, Avenue",49292,Moscow City,Colombia
Kalia Madden,1-356-693-1856,eget.volutpat@icloud.ca,"P.O. Box 679, 9195 Nisi Road",8618,Connacht,United States
Tanya Park,1-868-597-7814,lectus.ante@outlook.com,Ap #237-3234 Erat St.,12485,Dalarnas län,Chile
Jaime Hanson,(890) 114-7171,integer.tincidunt@outlook.net,"P.O. Box 468, 8475 Tristique Ave",22-24,Upper Austria,Norway
Brianna Valencia,(468) 333-2242,dis.parturient@hotmail.couk,488-2370 Eleifend Avenue,0941,Campania,South Africa
Bruno Kidd,(282) 356-9437,amet@yahoo.net,"P.O. Box 132, 7392 Nulla. St.",HV2N 7FL,Friesland,Nigeria
Karina Small,1-285-553-4984,ut.aliquam@yahoo.couk,Ap #381-4308 Nisl. Road,67331,Noord Brabant,Nigeria
Abel Henry,1-867-436-3853,duis.volutpat@aol.org,551-7079 Vivamus Street,46655-85953,Kirovohrad oblast,Belgium
Kevin James,(757) 231-6110,nec.tempus.mauris@google.ca,9761 Suspendisse Rd.,15106,Styria,Nigeria
Venus Kaufman,(393) 538-8372,dignissim.tempor@outlook.com,826-5996 Aliquam St.,3523,Ilocos Region,South Korea
Leah Bruce,1-858-465-3726,montes.nascetur@yahoo.couk,176-7162 Ut Ave,A2K 1B7,Alajuela,Germany
Armando Skinner,1-174-976-5370,ipsum.dolor.sit@aol.net,"Ap #546-3982 Eu, St.",6653,Nariño,Russian Federation
Hamish Velez,1-769-851-0761,ut.eros@outlook.net,611-5489 Curabitur Road,81102,Møre og Romsdal,Ireland
Knox Harrington,(174) 957-2144,maecenas.mi.felis@icloud.com,1634 Ac St.,21838,Berlin,Poland
James Cobb,(369) 316-6281,in.hendrerit@hotmail.ca,9686 Nibh Road,1232,Northern Cape,Colombia
Ori Thomas,1-675-937-0237,cum@protonmail.net,Ap #630-8865 Eget Ave,868735,Aquitaine,Netherlands
Jesse Gentry,(526) 936-9631,felis.purus.ac@google.couk,Ap #919-5723 Felis Street,74701-437,North Chungcheong,Sweden
Freya Logan,(497) 448-1305,ac.urna.ut@google.edu,Ap #159-1732 A Avenue,31386,National Capital Region,India
Hilel Gentry,1-238-298-0302,adipiscing.lobortis.risus@protonmail.couk,625-3360 Tellus Ave,155705,Provence-Alpes-Côte d'Azur,Vietnam
Pearl Weeks,1-242-855-1516,luctus@protonmail.edu,"P.O. Box 432, 6535 Ut Av.",75138,La Libertad,Ukraine
Oren Owens,1-963-745-3021,laoreet.lectus.quis@google.com,"P.O. Box 898, 5635 Tempus St.",27762,Tasmania,Indonesia
Lucas Duffy,1-551-901-1173,tincidunt.adipiscing.mauris@google.net,"1219 Vel, Av.",15-785,Cajamarca,Russian Federation
Ignacia Vincent,1-857-226-4162,sed.pede.cum@protonmail.net,323-8244 Parturient St.,167684,Riau Islands,Chile
Phillip David,(478) 846-4079,vivamus.rhoncus@icloud.ca,483-4308 Egestas. Road,84622,Opolskie,Turkey
Howard Rios,(324) 643-6767,sit@google.ca,Ap #629-7169 Dapibus Av.,23-441,Puno,Vietnam
Emery Dennis,1-364-541-6658,eget@hotmail.com,351-4667 Fusce Ave,13839,San Luis Potosí,Canada
Oprah Donovan,(427) 469-0449,pellentesque.sed@aol.com,"P.O. Box 895, 7905 Eget St.",24-178,North Region,Austria
Michael Lee,1-421-514-2743,pharetra@aol.couk,"P.O. Box 529, 618 Suspendisse Rd.",311455,Kujawsko-pomorskie,Brazil
Quemby Spence,1-301-808-0355,eleifend.vitae@hotmail.edu,"207-5020 Erat, Rd.",23-49,Azad Kashmir,Singapore
Connor Carr,1-715-351-3456,ac.ipsum@hotmail.com,105-2128 Pellentesque Street,647127,Chiapas,Belgium
Andrew Frank,1-767-342-2825,lectus.cum@protonmail.couk,"Ap #165-1030 Amet, Rd.",55175,Central Region,Nigeria
William Roman,1-274-673-7987,vestibulum.accumsan@outlook.edu,313-1416 Tellus Ave,26568,Casanare,Germany
Phelan Price,1-459-227-8746,cras.vehicula@hotmail.ca,Ap #370-5975 Bibendum. St.,S2Y 8M3,South Island,Norway
Erasmus Dodson,1-844-326-2571,consequat.purus.maecenas@protonmail.net,252-7189 Risus. Ave,733878,La Guajira,Spain
Sean Madden,1-211-478-2222,commodo.ipsum@outlook.ca,"Ap #610-761 Scelerisque, Road",56644,West Papua,Netherlands
Wynne Clemons,1-421-554-1275,aliquam@yahoo.org,"P.O. Box 923, 7045 Vitae St.",7388,Niedersachsen,New Zealand
Grady Gallegos,1-663-342-3974,ultricies.sem@yahoo.net,589-2347 Velit Road,26274,Atacama,United States
Xander Schwartz,1-540-137-4873,euismod.enim.etiam@google.net,Ap #999-7532 Dui Rd.,23710,Atlántico,Pakistan
Peter Snow,(606) 577-0142,nisi.a@outlook.edu,Ap #623-6969 Dis Ave,4287,West Sulawesi,Russian Federation
Shelby Steele,(214) 933-3949,nec.tempus@icloud.ca,"698-4092 Fringilla, Ave",4270,Sumy oblast,Peru
Ethan Fuller,(663) 784-7763,dolor.quam@hotmail.org,Ap #467-7450 Interdum Road,81806,Eastern Visayas,Costa Rica
Vivien Parsons,1-987-945-0488,nunc.in@icloud.ca,177-339 Aliquet Rd.,27054,Brussels Hoofdstedelijk Gewest,Belgium
Travis Fitzgerald,(765) 219-3248,amet.ornare@protonmail.com,"412-4123 Rutrum, Rd.",2190,Berlin,Sweden
Sylvia Maynard,1-111-475-1037,et.pede.nunc@hotmail.net,"367-5963 Id, St.",24M 4M5,Manitoba,Vietnam
Magee Lowe,1-665-746-7259,nunc.sed.orci@outlook.com,Ap #385-728 Odio. St.,555666,Soccsksargen,China
Jacqueline Booth,1-438-848-9502,neque.in@google.org,4819 Vel Rd.,77917,Östergötlands län,Pakistan
